DUBAISAT-1              
1 35682U 09041B   26189.93067776  .00000591  00000+0  95098-4 0  9998
2 35682  98.0077 322.9535 0010414   8.9680 351.1713 14.75160197908309
OCEANSAT-2              
1 35931U 09051A   26190.28873403 -.00000168  00000+0 -88954-4 0  9993
2 35931  98.2318 174.9337 0016953 170.6220 189.5266 13.99657096882426
WORLDVIEW-2 (WV-2)      
1 35946U 09055A   26190.29211898  .00000054  00000+0  32412-4 0  9998
2 35946  98.4758 263.4405 0005053 144.2671 215.8855 14.37905909878826
SMOS                    
1 36036U 09059A   26189.94163681  .00000164  00000+0  66309-4 0  9993
2 36036  98.4428  16.9579 0001136  94.8218 265.3100 14.39733454876589
YAOGAN-7                
1 36110U 09069A   26189.61704388  .00000339  00000+0  54067-4 0  9998
2 36110  98.0044  75.3492 0023935 333.3807  26.6172 14.78031471892792
TANDEM-X                
1 36605U 10030A   26188.47915494  .00000386  00000+0  21566-4 0  9992
2 36605  97.4457 195.8973 0001887  94.3019 265.8431 15.19154052889726
CARTOSAT-2B             
1 36795U 10035A   26190.26497840  .00000319  00000+0  50727-4 0  9994
2 36795  97.9942 240.6726 0012442 116.2427 244.0064 14.78613003863117
YAOGAN-10               
1 36834U 10038A   26190.31745466  .00001779  00000+0  21275-3 0  9993
2 36834  97.8976 213.5454 0001731  85.2276   6.0566 14.85420102860495
COSMO-SKYMED 4          
1 37216U 10060A   26190.51966530  .00000263  00000+0  39564-4 0  9990
2 37216  97.8890  13.7954 0001507  94.9762 265.1623 14.82145819847873
RESOURCESAT-2           
1 37387U 11015A   26190.32998809  .00000013  00000+0  26325-4 0  9997
2 37387  98.7634 257.6178 0011245 187.6784 172.4223 14.21605089789323
HAIYANG-2A              
1 37781U 11043A   26190.53883362  .00000013  00000+0  60370-4 0  9994
2 37781  99.3405 192.7084 0003287  45.5077 314.6340 13.73551695749722
RASAT                   
1 37791U 11044D   26190.32315875  .00000318  00000+0  63637-4 0  9999
2 37791  98.0573 281.3829 0021735 120.2973 280.7032 14.68189297796432
SRMSAT                  
1 37841U 11058D   26190.26776515  .00000357  00000+0  49932-4 0  9990
2 37841  19.9721 285.8249 0011876  86.5913 293.6936 14.11580164760942
PLEIADES 1A             
1 38012U 11076F   26190.28573350  .00000099  00000+0  31157-4 0  9998
2 38012  98.1966 265.0914 0001732  83.0975 346.9415 14.58544863775219
ZIYUAN 1-02C (ZY 1-02C) 
1 38038U 11079A   26190.34341191  .00000200  00000+0  79931-4 0  9998
2 38038  98.4059 257.1884 0005313 235.0528 214.2487 14.38232611762397
ARIRANG-3 (KOMPSAT-3)   
1 38338U 12025B   26190.27250127  .00000303  00000+0  69359-4 0  9990
2 38338  98.1182 147.3528 0006535  54.2122 305.9686 14.62225881754575
EXACTVIEW-1 (ADS-1B)    
1 38709U 12039C   26190.28848470  .00000066  00000+0  48059-4 0  9992
2 38709  98.9798 308.1803 0011932 106.9299 253.3189 14.24991160725859
SPOT 6                  
1 38755U 12047A   26190.28775383  .00000111  00000+0  33727-4 0  9991
2 38755  98.2107 257.3373 0001152  82.7498 277.3832 14.58536835736279
PLEIADES 1B             
1 39019U 12068A   26190.30633025  .00000014  00000+0  12915-4 0  9995
2 39019  98.1936 265.0533 0001649  82.4713 277.6674 14.58532040724070
GOKTURK 2               
1 39030U 12073A   26190.32330100  .00000431  00000+0  70106-4 0  9993
2 39030  97.6820  26.6443 0000915  80.1619 279.9694 14.75565402727779
LANDSAT 8               
1 39084U 13008A   26190.20513999  .00000207  00000+0  55984-4 0  9995
2 39084  98.2292 260.0779 0001351  94.1162 266.0191 14.57109308701104
SARAL                   
1 39086U 13009A   26190.31670351  .00000066  00000+0  40160-4 0  9999
2 39086  98.5554  16.6040 0001344 182.6701 177.4476 14.32894777698773
GAOFEN-1                
1 39150U 13018A   26190.29078579  .00000328  00000+0  54204-4 0  9997
2 39150  97.9083 261.9090 0016574 190.2733 169.8141 14.76514383711507
VNREDSAT 1              
1 39160U 13021B   26190.28864324  .00000199  00000+0  45668-4 0  9992
2 39160  97.9068 242.8558 0001652  81.8741 278.2650 14.64879852703528
ARIRANG-5 (KOMPSAT-5)   
1 39227U 13042A   26190.31330897  .00000731  00000+0  56520-4 0  9997
2 39227  97.6223  16.7028 0005482  72.4277 287.7547 15.04517206707180
SKYSAT-A                
1 39418U 13066C   26190.01556121  .00002158  00000+0  12503-3 0  9999
2 39418  97.3804 238.7170 0019991 235.9281 124.0054 15.13093909691782
DUBAISAT-2              
1 39419U 13066D   26190.26637961  .00004094  00000+0  25314-3 0  9994
2 39419  97.4573 179.8355 0009900 325.7476  34.3114 15.10347493689728
GPM-CORE                
1 39574U 14009C   26190.28521591  .00004185  00000+0  93574-4 0  9992
2 39574  64.9701 234.0934 0011069 260.0161  99.9731 15.44998228701227
SENTINEL-1A             
1 39634U 14016A   26190.31033477  .00000161  00000+0  43935-4 0  9998
2 39634  98.1787 197.5202 0001430  86.4532 273.6831 14.59199697653249
KAZEOSAT 1              
1 39731U 14024A   26190.29428793  .00000120  00000+0  49478-4 0  9994
2 39731  98.3195 262.1913 0001300  82.4097 277.7240 14.42036120641742
