OBJECT_NAME,OBJECT_ID,EPOCH,MEAN_MOTION,ECCENTRICITY,INCLINATION,RA_OF_ASC_NODE,ARG_OF_PERICENTER,MEAN_ANOMALY,EPHEMERIS_TYPE,CLASSIFICATION_TYPE,NORAD_CAT_ID,ELEMENT_SET_NO,REV_AT_EPOCH,BSTAR,MEAN_MOTION_DOT,MEAN_MOTION_DDOT
DUBAISAT-1,2009-041B,2026-07-08T22:20:10.558464,14.75160197,.00104149,98.0077,322.9535,8.9680,351.1713,0,U,35682,999,90830,.9509836E-4,.591E-5,0
OCEANSAT-2,2009-051A,2026-07-09T06:55:46.620192,13.99657096,.00169536,98.2318,174.9337,170.6220,189.5266,0,U,35931,999,88242,-.88953601E-4,-.168E-5,0
WORLDVIEW-2 (WV-2),2009-055A,2026-07-09T07:00:39.079872,14.37905909,.00050538,98.4758,263.4405,144.2671,215.8855,0,U,35946,999,87882,.3241178E-4,.54E-6,0
SMOS,2009-059A,2026-07-08T22:35:57.420384,14.39733454,.00011361,98.4428,16.9579,94.8218,265.3100,0,U,36036,999,87658,.66309277E-4,.164E-5,0
YAOGAN-7,2009-069A,2026-07-08T14:48:32.591232,14.78031471,.00239353,98.0044,75.3492,333.3807,26.6172,0,U,36110,999,89279,.54067378E-4,.339E-5,0
TANDEM-X,2010-030A,2026-07-07T11:29:58.986816,15.19154052,.0001887,97.4457,195.8973,94.3019,265.8431,0,U,36605,999,88972,.21566E-4,.386E-5,0
CARTOSAT-2B,2010-035A,2026-07-09T06:21:34.133760,14.78613003,.00124421,97.9942,240.6726,116.2427,244.0064,0,U,36795,999,86311,.50727189E-4,.319E-5,0
YAOGAN-10,2010-038A,2026-07-09T07:37:08.082624,14.85420102,.00017316,97.8976,213.5454,85.2276,6.0566,0,U,36834,999,86049,.21275198E-3,.1779E-4,0
COSMO-SKYMED 4,2010-060A,2026-07-09T12:28:19.081920,14.82145819,.0001507,97.8890,13.7954,94.9762,265.1623,0,U,37216,999,84787,.39564E-4,.263E-5,0
RESOURCESAT-2,2011-015A,2026-07-09T07:55:10.970976,14.21605089,.00112454,98.7634,257.6178,187.6784,172.4223,0,U,37387,999,78932,.26325411E-4,.13E-6,0
HAIYANG-2A,2011-043A,2026-07-09T12:55:55.224768,13.73551695,.0003287,99.3405,192.7084,45.5077,314.6340,0,U,37781,999,74972,.6037E-4,.13E-6,0
RASAT,2011-044D,2026-07-09T07:45:20.916000,14.68189297,.00217352,98.0573,281.3829,120.2973,280.7032,0,U,37791,999,79643,.6363697E-4,.318E-5,0
SRMSAT,2011-058D,2026-07-09T06:25:34.908960,14.11580164,.00118767,19.9721,285.8249,86.5913,293.6936,0,U,37841,999,76094,.49931679E-4,.357E-5,0
PLEIADES 1A,2011-076F,2026-07-09T06:51:27.374400,14.58544863,.0001732,98.1966,265.0914,83.0975,346.9415,0,U,38012,999,77521,.31156969E-4,.99E-6,0
ZIYUAN 1-02C (ZY 1-02C),2011-079A,2026-07-09T08:14:30.789024,14.38232611,.0005313,98.4059,257.1884,235.0528,214.2487,0,U,38038,999,76239,.79930906E-4,.2E-5,0
ARIRANG-3 (KOMPSAT-3),2012-025B,2026-07-09T06:32:24.109728,14.62225881,.00065352,98.1182,147.3528,54.2122,305.9686,0,U,38338,999,75457,.69358854E-4,.303E-5,0
EXACTVIEW-1 (ADS-1B),2012-039C,2026-07-09T06:55:25.078080,14.24991160,.00119328,98.9798,308.1803,106.9299,253.3189,0,U,38709,999,72585,.48059452E-4,.66E-6,0
SPOT 6,2012-047A,2026-07-09T06:54:21.930912,14.58536835,.0001152,98.2107,257.3373,82.7498,277.3832,0,U,38755,999,73627,.33726572E-4,.111E-5,0
PLEIADES 1B,2012-068A,2026-07-09T07:21:06.933600,14.58532040,.00016494,98.1936,265.0533,82.4713,277.6674,0,U,39019,999,72407,.12914897E-4,.14E-6,0
GOKTURK 2,2012-073A,2026-07-09T07:45:33.206400,14.75565402,.00009151,97.6820,26.6443,80.1619,279.9694,0,U,39030,999,72777,.70105732E-4,.431E-5,0
LANDSAT 8,2013-008A,2026-07-09T04:55:24.095136,14.57109308,.00013511,98.2292,260.0779,94.1162,266.0191,0,U,39084,999,70110,.55984417E-4,.207E-5,0
SARAL,2013-009A,2026-07-09T07:36:03.183264,14.32894777,.00013449,98.5554,16.6040,182.6701,177.4476,0,U,39086,999,69877,.40159892E-4,.66E-6,0
GAOFEN-1,2013-018A,2026-07-09T06:58:43.892256,14.76514383,.00165747,97.9083,261.9090,190.2733,169.8141,0,U,39150,999,71150,.54204419E-4,.328E-5,0
VNREDSAT 1,2013-021B,2026-07-09T06:55:38.775936,14.64879852,.00016526,97.9068,242.8558,81.8741,278.2650,0,U,39160,999,70352,.45667982E-4,.199E-5,0
ARIRANG-5 (KOMPSAT-5),2013-042A,2026-07-09T07:31:09.895008,15.04517206,.00054821,97.6223,16.7028,72.4277,287.7547,0,U,39227,999,70718,.5651999E-4,.731E-5,0
SKYSAT-A,2013-066C,2026-07-09T00:22:24.488544,15.13093909,.00199913,97.3804,238.7170,235.9281,124.0054,0,U,39418,999,69178,.12503233E-3,.2158E-4,0
DUBAISAT-2,2013-066D,2026-07-09T06:23:35.198304,15.10347493,.00099005,97.4573,179.8355,325.7476,34.3114,0,U,39419,999,68972,.25313688E-3,.4094E-4,0
GPM-CORE,2014-009C,2026-07-09T06:50:42.654624,15.44998228,.0011069,64.9701,234.0934,260.0161,99.9731,0,U,39574,999,70122,.93573978E-4,.4185E-4,0
SENTINEL-1A,2014-016A,2026-07-09T07:26:52.924128,14.59199697,.000143,98.1787,197.5202,86.4532,273.6831,0,U,39634,999,65324,.43934699E-4,.161E-5,0
KAZEOSAT 1,2014-024A,2026-07-09T07:03:46.477152,14.42036120,.00013009,98.3195,262.1913,82.4097,277.7240,0,U,39731,999,64174,.49477809E-4,.12E-5,0
